[{"OBJECT_NAME":"TEVEL2-6","OBJECT_ID":"2025-052F","EPOCH":"2026-03-09T15:35:24.554400","MEAN_MOTION":15.30760889,"ECCENTRICITY":0.0004769,"INCLINATION":97.4016,"RA_OF_ASC_NODE":325.0381,"ARG_OF_PERICENTER":95.6604,"MEAN_ANOMALY":264.5181,"EPHEMERIS_TYPE":0,"CLASSIFICATION_TYPE":"U","NORAD_CAT_ID":63215,"ELEMENT_SET_NO":999,"REV_AT_EPOCH":5486,"BSTAR":0.00070909,"MEAN_MOTION_DOT":0.00021046,"MEAN_MOTION_DDOT":0},{"OBJECT_NAME":"STARLINK-34873","OBJECT_ID":"2025-189Z","EPOCH":"2026-03-09T15:21:37.481760","MEAN_MOTION":15.30192814,"ECCENTRICITY":0.0001115,"INCLINATION":53.1607,"RA_OF_ASC_NODE":206.6533,"ARG_OF_PERICENTER":101.6411,"MEAN_ANOMALY":258.4715,"EPHEMERIS_TYPE":0,"CLASSIFICATION_TYPE":"U","NORAD_CAT_ID":65346,"ELEMENT_SET_NO":999,"REV_AT_EPOCH":3111,"BSTAR":0.00045328,"MEAN_MOTION_DOT":0.00013087,"MEAN_MOTION_DDOT":0}]
