TEVEL2-6                
1 63215U 25052F   26068.64958975  .00021046  00000+0  70909-3 0  9996
2 63215  97.4016 325.0381 0004769  95.6604 264.5181 15.30760889 54861
STARLINK-34873          
1 65346U 25189Z   26068.64001715  .00013087  00000+0  45328-3 0  9998
2 65346  53.1607 206.6533 0001115 101.6411 258.4715 15.30192814 31117
